NORAD_CAT_ID,OBJECT_NAME,OBJECT_TYPE,EPOCH,MEAN_MOTION,ECCENTRICITY,INCLINATION,RA_OF_ASC_NODE,ARG_OF_PERICENTER,MEAN_ANOMALY,BSTAR,MEAN_MOTION_DOT,MEAN_MOTION_DDOT,TLE_LINE0,TLE_LINE1,TLE_LINE2,SEMIMAJOR_AXIS,PERIOD,APOGEE,PERIGEE,DECAYED
53154.0,STARLINK-4077,PAYLOAD,2022-11-27 20:27:51,15.08839141,0.0001969,53.2171,141.4114,53.3523,306.765,-2.2655e-06,-3.24e-06,0.0,0 STARLINK-4077,1 53154U 22083Y   22331.85268096 -.00000324  00000-0 -22655-5 0  9994,2 53154  53.2171 141.4114 0001969  53.3523 306.7650 15.08839141 20527,6917.8830000000025,95.438,541.11,538.386,0.0
53154.0,STARLINK-4077,PAYLOAD,2022-11-28 04:24:47,15.08841557,0.0002015,53.2175,139.9248,53.4288,306.6889,8.337999999999999e-06,-1.56e-06,0.0,0 STARLINK-4077,1 53154U 22083Y   22332.18387894 -.00000156  00000-0  83380-5 0  9993,2 53154  53.2175 139.9248 0002015  53.4288 306.6889 15.08841557 21206,6917.876,95.437,541.135,538.347,0.0
53154.0,STARLINK-4077,PAYLOAD,2022-11-28 13:57:05,15.08843979,0.000201,53.2173,138.1405,54.2402,305.8777,2.1358e-05,5.2e-07,0.0,0 STARLINK-4077,1 53154U 22083Y   22332.58131624  .00000052  00000-0  21358-4 0  9995,2 53154  53.2173 138.1405 0002010  54.2402 305.8777 15.08843979 20635,6917.868,95.437,541.124,538.3430000000002,0.0
53154.0,STARLINK-4077,PAYLOAD,2022-11-29 10:37:06,15.08839266,0.0001974,53.2176,134.275,54.7255,305.3922,8.127e-05,1.005e-05,0.0,0 STARLINK-4077,1 53154U 22083Y   22333.44243534  .00001005  00000-0  81270-4 0  9993,2 53154  53.2176 134.2750 0001974  54.7255 305.3922 15.08839266 21392,6917.8830000000025,95.438,541.113,538.382,0.0
53154.0,STARLINK-4077,PAYLOAD,2022-11-29 12:12:29,15.08838012,0.0002001,53.2178,133.9775,54.8603,305.2576,5.6659e-05,6.14e-06,0.0,0 STARLINK-4077,1 53154U 22083Y   22333.50867724  .00000614  00000-0  56659-4 0  9991,2 53154  53.2178 133.9775 0002001  54.8603 305.2576 15.08838012 20770,6917.886,95.438,541.136,538.367,0.0
53154.0,STARLINK-4077,PAYLOAD,2022-11-29 20:09:25,15.08831696,0.0001955,53.2178,132.4909,54.0733,306.0441,-5.7972000000000024e-08,-2.89e-06,0.0,0 STARLINK-4077,1 53154U 22083Y   22333.83988409 -.00000289  00000-0 -57972-7 0  9993,2 53154  53.2178 132.4909 0001955  54.0733 306.0441 15.08831696 20823,6917.906,95.438,541.123,538.418,0.0
53154.0,STARLINK-4077,PAYLOAD,2022-11-30 10:27:53,15.08837297,0.0001928,53.2178,129.8145,53.6092,306.5078,2.2879e-05,7.6e-07,0.0,0 STARLINK-4077,1 53154U 22083Y   22334.43604107  .00000076  00000-0  22879-4 0  9997,2 53154  53.2178 129.8145 0001928  53.6092 306.5078 15.08837297 20912,6917.889,95.438,541.087,538.42,0.0
53154.0,STARLINK-4077,PAYLOAD,2022-11-30 16:49:26,15.08839699,0.0001916,53.2176,128.6249,54.2089,305.9081,4.6187e-05,4.47e-06,0.0,0 STARLINK-4077,1 53154U 22083Y   22334.70099896  .00000447  00000-0  46187-4 0  9990,2 53154  53.2176 128.6249 0001916  54.2089 305.9081 15.08839699 21581,6917.880999999999,95.438,541.072,538.4209999999998,0.0
53154.0,STARLINK-4077,PAYLOAD,2022-12-01 10:18:40,15.08840423,0.0001926,53.2177,125.3541,52.2036,307.913,6.493e-05,7.45e-06,0.0,0 STARLINK-4077,1 53154U 22083Y   22335.42963701  .00000745  00000-0  64930-4 0  9992,2 53154  53.2177 125.3541 0001926  52.2036 307.9130 15.08840423 21069,6917.879,95.438,541.076,538.4119999999998,0.0
53154.0,STARLINK-4077,PAYLOAD,2022-12-01 16:40:13,15.08837559,0.000194,53.2179,124.1646,52.8063,307.3106,3.8041e-05,3.17e-06,0.0,0 STARLINK-4077,1 53154U 22083Y   22335.69460019  .00000317  00000-0  38041-4 0  9994,2 53154  53.2179 124.1646 0001940  52.8063 307.3106 15.08837559 21104,6917.888000000001,95.438,541.095,538.411,0.0
53154.0,STARLINK-4077,PAYLOAD,2022-12-02 10:09:28,15.08828867,0.0001988,53.2181,120.8939,54.8873,305.2305,-2.6812e-05,-7.15e-06,0.0,0 STARLINK-4077,1 53154U 22083Y   22336.42325183 -.00000715  00000-0 -26812-4 0  9995,2 53154  53.2181 120.8939 0001988  54.8873 305.2305 15.08828867 21849,6917.9140000000025,95.438,541.155,538.404,0.0
53154.0,STARLINK-4077,PAYLOAD,2022-12-02 16:31:01,15.08827305,0.000199,53.2184,119.7048,54.0824,306.0353,-3.428e-05,-8.34e-06,0.0,0 STARLINK-4077,1 53154U 22083Y   22336.68821485 -.00000834  00000-0 -34280-4 0  9999,2 53154  53.2184 119.7048 0001990  54.0824 306.0353 15.08827305 21254,6917.919,95.438,541.161,538.408,0.0
53154.0,STARLINK-4077,PAYLOAD,2022-12-03 13:11:02,15.08830256,0.0001958,53.2182,115.8395,52.9657,307.1514,5.4252e-05,5.75e-06,0.0,0 STARLINK-4077,1 53154U 22083Y   22337.54933416  .00000575  00000-0  54252-4 0  9994,2 53154  53.2182 115.8395 0001958  52.9657 307.1514 15.08830256 21383,6917.91,95.438,541.13,538.4209999999998,0.0
53154.0,STARLINK-4077,PAYLOAD,2022-12-03 16:21:48,15.08833183,0.0001945,53.2187,115.2451,51.9964,308.1203,7.4527e-05,8.98e-06,0.0,0 STARLINK-4077,1 53154U 22083Y   22337.68181254  .00000898  00000-0  74527-4 0  9999,2 53154  53.2187 115.2451 0001945  51.9964 308.1203 15.08833183 22032,6917.901,95.438,541.112,538.4209999999998,0.0
53154.0,STARLINK-4077,PAYLOAD,2022-12-04 09:51:02,15.08839508,0.000188,53.2183,111.9733,47.1149,313.0,0.00017842,2.553e-05,0.0,0 STARLINK-4077,1 53154U 22083Y   22338.41044747  .00002553  00000-0  17842-3 0  9992,2 53154  53.2183 111.9733 0001880  47.1149 313.0000 15.08839508 22143,6917.882,95.438,541.047,538.446,0.0
53154.0,STARLINK-4077,PAYLOAD,2022-12-04 19:23:21,15.08836633,0.0001979,53.2186,110.1894,49.6119,310.5045,0.00014099,1.956e-05,0.0,0 STARLINK-4077,1 53154U 22083Y   22338.80789231  .00001956  00000-0  14099-3 0  9996,2 53154  53.2186 110.1894 0001979  49.6119 310.5045 15.08836633 21571,6917.891,95.438,541.125,538.387,0.0
53154.0,STARLINK-4077,PAYLOAD,2022-12-05 08:06:26,15.08847459,0.0001996,53.219,107.8101,49.4466,310.67,9.1567e-05,1.17e-05,0.0,0 STARLINK-4077,1 53154U 22083Y   22339.33780762  .00001170  00000-0  91567-4 0  9999,2 53154  53.2190 107.8101 0001996  49.4466 310.6700 15.08847459 21658,6917.858,95.437,541.1030000000002,538.342,0.0
53154.0,STARLINK-4077,PAYLOAD,2022-12-05 17:38:45,15.08843316,0.0002032,53.2192,106.0258,49.0891,311.0277,4.1904e-05,3.79e-06,0.0,0 STARLINK-4077,1 53154U 22083Y   22339.73525069  .00000379  00000-0  41904-4 0  9990,2 53154  53.2192 106.0258 0002032  49.0891 311.0277 15.08843316 22343,6917.87,95.437,541.141,538.33,0.0
53154.0,STARLINK-4077,PAYLOAD,2022-12-06 09:32:36,15.088551,0.0001967,53.2191,103.0525,51.5004,308.6165,6.6921e-05,7.77e-06,0.0,0 STARLINK-4077,1 53154U 22083Y   22340.39763908  .00000777  00000-0  66921-4 0  9998,2 53154  53.2191 103.0525 0001967  51.5004 308.6165 15.08855100 22449,6917.834,95.437,541.06,538.3380000000002,0.0
53154.0,STARLINK-4077,PAYLOAD,2022-12-06 15:54:09,15.08836361,0.0002025,53.2188,101.8635,53.6815,306.4364,-0.00010379,-1.94e-05,0.0,0 STARLINK-4077,1 53154U 22083Y   22340.66261352 -.00001940  00000-0 -10379-3 0  9994,2 53154  53.2188 101.8635 0002025  53.6815 306.4364 15.08836361 22481,6917.892,95.438,541.1569999999998,538.356,0.0
53154.0,STARLINK-4077,PAYLOAD,2022-12-07 10:58:47,15.088394699999998,0.0001883,53.2182,98.2935,48.9353,311.1801,3.5981999999999995e-05,2.85e-06,0.0,0 STARLINK-4077,1 53154U 22083Y   22341.45748934  .00000285  00000-0  35982-4 0  9995,2 53154  53.2182  98.2935 0001883  48.9353 311.1801 15.08839470 22609,6917.882,95.438,541.05,538.444,0.0
53154.0,STARLINK-4077,PAYLOAD,2022-12-07 17:20:19,15.08844125,0.0002086,53.219,97.106,47.9315,312.1855,0.00010012,1.306e-05,0.0,0 STARLINK-4077,1 53154U 22083Y   22341.72244655  .00001306  00000-0  10012-3 0  9997,2 53154  53.2190  97.1060 0002086  47.9315 312.1855 15.08844125 22016,6917.868,95.437,541.1759999999998,538.29,0.0
53154.0,STARLINK-4077,PAYLOAD,2022-12-08 07:38:47,15.08845504,0.0002476,53.2185,94.4307,33.6742,326.4407,0.00019487,2.815e-05,0.0,0 STARLINK-4077,1 53154U 22083Y   22342.31860064  .00002815  00000-0  19487-3 0  9992,2 53154  53.2185  94.4307 0002476  33.6742 326.4407 15.08845504 22106,6917.864000000001,95.437,541.441,538.016,0.0
53154.0,STARLINK-4077,PAYLOAD,2022-12-08 14:00:19,15.08864933,0.000201,53.219,93.2406,50.6197,309.4973,0.00047867,7.343e-05,0.0,0 STARLINK-4077,1 53154U 22083Y   22342.58355329  .00007343  00000-0  47867-3 0  9998,2 53154  53.2190  93.2406 0002010  50.6197 309.4973 15.08864933 22775,6917.804,95.436,541.06,538.279,0.0
53154.0,STARLINK-4077,PAYLOAD,2022-12-09 18:37:16,15.08835471,0.0002586,53.2198,87.8946,32.5241,327.591,-3.7834e-06,-3.49e-06,0.0,0 STARLINK-4077,1 53154U 22083Y   22343.77588687 -.00000349  00000-0 -37834-5 0  9991,2 53154  53.2198  87.8946 0002586  32.5241 327.5910 15.08835471 22955,6917.894,95.438,541.548,537.97,0.0
53154.0,STARLINK-4077,PAYLOAD,2022-12-10 13:41:53,15.08842587,0.0001905,53.2183,84.3195,41.0005,319.113,-0.00012788,-2.323e-05,0.0,0 STARLINK-4077,1 53154U 22083Y   22344.57076183 -.00002323  00000-0 -12788-3 0  9996,2 53154  53.2183  84.3195 0001905  41.0005 319.1130 15.08842587 22445,6917.871999999999,95.437,541.055,538.42,0.0
53154.0,STARLINK-4077,PAYLOAD,2022-12-10 16:52:40,15.08844493,0.0001929,53.2185,83.725,39.7777,320.3357,-7.3087e-05,-1.451e-05,0.0,0 STARLINK-4077,1 53154U 22083Y   22344.70324106 -.00001451  00000-0 -73087-4 0  9993,2 53154  53.2185  83.7250 0001929  39.7777 320.3357 15.08844493 23093,6917.8669999999975,95.437,541.066,538.3969999999998,0.0
53154.0,STARLINK-4077,PAYLOAD,2022-12-11 13:32:41,15.08839731,0.0001917,53.2187,79.8606,34.6238,325.4878,0.00020424,2.964e-05,0.0,0 STARLINK-4077,1 53154U 22083Y   22345.56436456  .00002964  00000-0  20424-3 0  9994,2 53154  53.2187  79.8606 0001917  34.6238 325.4878 15.08839731 22596,6917.880999999999,95.438,541.072,538.42,0.0
53154.0,STARLINK-4077,PAYLOAD,2022-12-11 15:08:04,15.08836212,0.0002208,53.2181,79.5637,35.5164,324.5974,8.938e-05,1.134e-05,0.0,0 STARLINK-4077,1 53154U 22083Y   22345.63060732  .00001134  00000-0  89380-4 0  9997,2 53154  53.2181  79.5637 0002208  35.5164 324.5974 15.08836212 23233,6917.892,95.438,541.284,538.229,0.0
